ONEWEB-0414             
1 50491U 21132Y   24121.73993088 -.00000034  00000+0 -11923-3 0  9992
2 50491  87.9117 130.2194 0001734  84.0723 276.0606 13.18683919119167
ONEWEB-0417             
1 50492U 21132Z   24121.74784970 -.00000191  00000+0 -51652-3 0  9999
2 50492  87.9126 130.2172 0002239  83.6235 276.5152 13.18685735119145
ONEWEB-0418             
1 50493U 21132AA  24122.06070803 -.00000039  00000+0 -13050-3 0  9990
2 50493  87.9122 130.1599 0002294  77.3499 282.7890 13.18685731120525
ONEWEB-0419             
1 50494U 21132AB  24121.92647208 -.00000154  00000+0 -42235-3 0  9999
2 50494  87.9119 130.2055 0002401  87.1012 273.0395 13.18685779119141
ONEWEB-0420             
1 50495U 21132AC  24121.96914654  .00000155  00000+0  35983-3 0  9997
2 50495  87.9118 130.2058 0001888 100.7561 259.3783 13.18685202119142
ONEWEB-0421             
1 50496U 21132AD  24121.73519232 -.00000270  00000+0 -71838-3 0  9995
2 50496  87.9124 130.2145 0001630  85.4774 274.6544 13.18685821119150
ONEWEB-0424             
1 50497U 21132AE  24121.76998673  .00000060  00000+0  11996-3 0  9993
2 50497  87.9120 130.2158 0002595  91.5217 268.6213 13.18687157119185
ONEWEB-0426             
1 50498U 21132AF  24121.95966727 -.00000057  00000+0 -17799-3 0  9995
2 50498  87.9116 130.1970 0001960  70.0667 290.0676 13.18686074119154
